{
    "links": {
        "self": "http://www.neowsapp.com/rest/v1/neo/3601613?api_key=iIulBulltgU6a56xZRHN4H3l9WmuAYTsLGpBGhQ2"
    },
    "id": "3601613",
    "neo_reference_id": "3601613",
    "name": "(2012 FU23)",
    "designation": "2012 FU23",
    "nasa_jpl_url": "http://ssd.jpl.nasa.gov/sbdb.cgi?sstr=3601613",
    "absolute_magnitude_h": 27.6,
    "estimated_diameter": {
        "kilometers": {
            "estimated_diameter_min": 0.0080270317,
            "estimated_diameter_max": 0.0179489885
        },
        "meters": {
            "estimated_diameter_min": 8.0270316728,
            "estimated_diameter_max": 17.948988478
        },
        "miles": {
            "estimated_diameter_min": 0.0049877647,
            "estimated_diameter_max": 0.0111529809
        },
        "feet": {
            "estimated_diameter_min": 26.3354065935,
            "estimated_diameter_max": 58.8877593581
        }
    },
    "is_potentially_hazardous_asteroid": false,
    "close_approach_data": [
        {
            "close_approach_date": "1988-05-14",
            "close_approach_date_full": "1988-May-14 12:06",
            "epoch_date_close_approach": 579614760000,
            "relative_velocity": {
                "kilometers_per_second": "19.2196329715",
                "kilometers_per_hour": "69190.6786972344",
                "miles_per_hour": "42992.3969938455"
            },
            "miss_distance": {
                "astronomical": "0.066049479",
                "lunar": "25.693247331",
                "kilometers": "9880861.37300973",
                "miles": "6139682.556325074"
            },
            "orbiting_body": "Venus"
        },
        {
            "close_approach_date": "1990-03-21",
            "close_approach_date_full": "1990-Mar-21 02:46",
            "epoch_date_close_approach": 637987560000,
            "relative_velocity": {
                "kilometers_per_second": "18.0747020845",
                "kilometers_per_hour": "65068.9275040913",
                "miles_per_hour": "40431.3010927505"
            },
            "miss_distance": {
                "astronomical": "0.0430898435",
                "lunar": "16.7619491215",
                "kilometers": "6446148.806233345",
                "miles": "4005451.132956361"
            },
            "orbiting_body": "Venus"
        },
        {
            "close_approach_date": "2012-03-25",
            "close_approach_date_full": "2012-Mar-25 21:30",
            "epoch_date_close_approach": 1332711000000,
            "relative_velocity": {
                "kilometers_per_second": "18.3244607112",
                "kilometers_per_hour": "65968.0585602646",
                "miles_per_hour": "40989.9861648488"
            },
            "miss_distance": {
                "astronomical": "0.0078756385",
                "lunar": "3.0636233765",
                "kilometers": "1178178.744489995",
                "miles": "732086.324532131"
            },
            "orbiting_body": "Earth"
        },
        {
            "close_approach_date": "2012-03-26",
            "close_approach_date_full": "2012-Mar-26 02:39",
            "epoch_date_close_approach": 1332729540000,
            "relative_velocity": {
                "kilometers_per_second": "18.9272268056",
                "kilometers_per_hour": "68138.0165000977",
                "miles_per_hour": "42338.3136414079"
            },
            "miss_distance": {
                "astronomical": "0.0072828275",
                "lunar": "2.8330198975",
                "kilometers": "1089495.481577425",
                "miles": "676981.100221465"
            },
            "orbiting_body": "Moon"
        },
        {
            "close_approach_date": "2060-03-06",
            "close_approach_date_full": "2060-Mar-06 13:08",
            "epoch_date_close_approach": 2845804080000,
            "relative_velocity": {
                "kilometers_per_second": "30.6213640268",
                "kilometers_per_hour": "110236.9104966247",
                "miles_per_hour": "68496.9291916388"
            },
            "miss_distance": {
                "astronomical": "0.404051888",
                "lunar": "157.176184432",
                "kilometers": "60445301.81427856",
                "miles": "37558968.914861728"
            },
            "orbiting_body": "Earth"
        }
    ],
    "orbital_data": {
        "orbit_id": "5",
        "orbit_determination_date": "2017-04-06 08:50:23",
        "first_observation_date": "2012-03-23",
        "last_observation_date": "2012-03-25",
        "data_arc_in_days": 2,
        "observations_used": 30,
        "orbit_uncertainty": "7",
        "minimum_orbit_intersection": ".00676884",
        "jupiter_tisserand_invariant": "4.325",
        "epoch_osculation": "2459000.5",
        "eccentricity": ".5900145474394863",
        "semi_major_axis": "1.503441585093433",
        "inclination": "5.43840124709821",
        "ascending_node_longitude": "181.1670919570398",
        "orbital_period": "673.3304652280104",
        "perihelion_distance": ".6163891786628269",
        "perihelion_argument": "95.8758900561712",
        "aphelion_distance": "2.390493991524038",
        "perihelion_time": "2458757.642931800116",
        "mean_anomaly": "129.8449261795282",
        "mean_motion": ".5346557427460124",
        "equinox": "J2000",
        "orbit_class": {
            "orbit_class_type": "APO",
            "orbit_class_description": "Near-Earth asteroid orbits which cross the Earth’s orbit similar to that of 1862 Apollo",
            "orbit_class_range": "a (semi-major axis) > 1.0 AU; q (perihelion) < 1.017 AU"
        }
    },
    "is_sentry_object": false
}